[{"OBJECT_NAME":"STARLINK-1277","OBJECT_ID":"2020-019K","EPOCH":"2026-03-10T00:00:02.999808","MEAN_MOTION":15.48940207,"ECCENTRICITY":0.00040314,"INCLINATION":53.0509,"RA_OF_ASC_NODE":151.1274,"ARG_OF_PERICENTER":12.6993,"MEAN_ANOMALY":253.0952,"EPHEMERIS_TYPE":0,"CLASSIFICATION_TYPE":"U","NORAD_CAT_ID":45369,"ELEMENT_SET_NO":999,"REV_AT_EPOCH":575,"BSTAR":0.002005627,"MEAN_MOTION_DOT":0.00111275,"MEAN_MOTION_DDOT":0},{"OBJECT_NAME":"COSMOS 2251 DEB","OBJECT_ID":"1993-036AKV","EPOCH":"2026-03-08T23:59:46.258080","MEAN_MOTION":15.49681487,"ECCENTRICITY":0.00309856,"INCLINATION":73.9257,"RA_OF_ASC_NODE":274.5009,"ARG_OF_PERICENTER":140.1001,"MEAN_ANOMALY":220.2497,"EPHEMERIS_TYPE":0,"CLASSIFICATION_TYPE":"U","NORAD_CAT_ID":35451,"ELEMENT_SET_NO":999,"REV_AT_EPOCH":68735,"BSTAR":0.002182937,"MEAN_MOTION_DOT":0.00125306,"MEAN_MOTION_DDOT":0}]
